{"type": "FeatureCollection", "features": [ {"type": "Feature", "properties": {"norad_id": 30515, "name": "FENGYUN 1C DEB", "group": "fengyun-1c-debris", "lat": -68.82668495850324, "lon": -113.1140374187869, "alt_km": 1309.071776973029, "timestamp": "2025-12-14T03:55:53.064293+00:00", "meta": {"OBJECT_NAME": "FENGYUN 1C DEB", "OBJECT_ID": "1999-025AJD", "EPOCH": "2025-12-12T22:55:48.248256", "MEAN_MOTION": 13.63791971, "ECCENTRICITY": 0.04969004, "INCLINATION": 98.5092, "RA_OF_ASC_NODE": 223.0864, "ARG_OF_PERICENTER": 74.0728, "MEAN_ANOMALY": 49.5058, "EPHEMERIS_TYPE": 0, "CLASSIFICATION_TYPE": "U", "NORAD_CAT_ID": 30515, "ELEMENT_SET_NO": 999, "REV_AT_EPOCH": 93333, "BSTAR": 0.0014928234, "MEAN_MOTION_DOT": 2.717e-05, "MEAN_MOTION_DDOT": 0}, "tle": {"line1": "1 30515U 99025AJD 25346.95541954  .00002717  00000+0  14928-2 0  9993", "line2": "2 30515  98.5092 223.0864 0496900  74.0728  49.5058 13.63791971933339"}}, "geometry": {"type": "Point", "coordinates": [-113.1140374187869, -68.82668495850324]}}, {"type": "Feature", "properties": {"norad_id": 30516, "name": "FENGYUN 1C DEB", "group": "fengyun-1c-debris", "lat": 64.5168513615653, "lon": -68.67589621497024, "alt_km": 754.1194867863978, "timestamp": "2025-12-14T03:55:53.064306+00:00", "meta": {"OBJECT_NAME": "FENGYUN 1C DEB", "OBJECT_ID": "1999-025AJE", "EPOCH": "2025-12-13T06:03:25.056576", "MEAN_MOTION": 14.41356717, "ECCENTRICITY": 0.00091846, "INCLINATION": 98.8567, "RA_OF_ASC_NODE": 91.2842, "ARG_OF_PERICENTER": 289.471, "MEAN_ANOMALY": 137.8255, "EPHEMERIS_TYPE": 0, "CLASSIFICATION_TYPE": "U", "NORAD_CAT_ID": 30516, "ELEMENT_SET_NO": 999, "REV_AT_EPOCH": 97722, "BSTAR": 0.003820398, "MEAN_MOTION_DOT": 0.0001235, "MEAN_MOTION_DDOT": 0}, "tle": {"line1": "1 30516U 99025AJE 25347.25237334  .00012350  00000+0  38204-2 0  9999", "line2": "2 30516  98.8567  91.2842 0009184 289.4710 137.8255 14.41356717977226"}}, "geometry": {"type": "Point", "coordinates": [-68.67589621497024, 64.5168513615653]}}, {"type": "Feature", "properties": {"norad_id": 30520, "name": "FENGYUN 1C DEB", "group": "fengyun-1c-debris", "lat": -68.56162001472723, "lon": -41.829079938758525, "alt_km": 574.7087504860456, "timestamp": "2025-12-14T03:55:53.064317+00:00", "meta": {"OBJECT_NAME": "FENGYUN 1C DEB", "OBJECT_ID": "1999-025AJJ", "EPOCH": "2025-12-13T04:37:47.228736", "MEAN_MOTION": 15.1410425, "ECCENTRICITY": 0.00703724, "INCLINATION": 98.7179, "RA_OF_ASC_NODE": 160.0633, "ARG_OF_PERICENTER": 98.44, "MEAN_ANOMALY": 262.4813, "EPHEMERIS_TYPE": 0, "CLASSIFICATION_TYPE": "U", "NORAD_CAT_ID": 30520, "ELEMENT_SET_NO": 999, "REV_AT_EPOCH": 1048, "BSTAR": 0.001793271, "MEAN_MOTION_DOT": 0.0003478, "MEAN_MOTION_DDOT": 0}, "tle": {"line1": "1 30520U 99025AJJ 25347.19290774  .00034780  00000+0  17933-2 0  9991", "line2": "2 30520  98.7179 160.0633 0070372  98.4400 262.4813 15.14104250 10488"}}, "geometry": {"type": "Point", "coordinates": [-41.829079938758525, -68.56162001472723]}}, {"type": "Feature", "properties": {"norad_id": 30521, "name": "FENGYUN 1C DEB", "group": "fengyun-1c-debris", "lat": 51.58720920566173, "lon": -44.973028941153665, "alt_km": 728.663676565403, "timestamp": "2025-12-14T03:55:53.064327+00:00", "meta": {"OBJECT_NAME": "FENGYUN 1C DEB", "OBJECT_ID": "1999-025AJK", "EPOCH": "2025-12-13T07:34:30.649728", "MEAN_MOTION": 14.58260834, "ECCENTRICITY": 0.01356179, "INCLINATION": 98.9879, "RA_OF_ASC_NODE": 122.597, "ARG_OF_PERICENTER": 241.9415, "MEAN_ANOMALY": 116.8013, "EPHEMERIS_TYPE": 0, "CLASSIFICATION_TYPE": "U", "NORAD_CAT_ID": 30521, "ELEMENT_SET_NO": 999, "REV_AT_EPOCH": 99590, "BSTAR": 0.0012734475, "MEAN_MOTION_DOT": 6.624e-05, "MEAN_MOTION_DDOT": 0}, "tle": {"line1": "1 30521U 99025AJK 25347.31563252  .00006624  00000+0  12734-2 0  9990", "line2": "2 30521  98.9879 122.5970 0135617 241.9415 116.8013 14.58260834995901"}}, "geometry": {"type": "Point", "coordinates": [-44.973028941153665, 51.58720920566173]}}, {"type": "Feature", "properties": {"norad_id": 30523, "name": "FENGYUN 1C DEB", "group": "fengyun-1c-debris", "lat": -63.63343877893723, "lon": 128.9718916563174, "alt_km": 939.3534081316266, "timestamp": "2025-12-14T03:55:53.064337+00:00", "meta": {"OBJECT_NAME": "FENGYUN 1C DEB", "OBJECT_ID": "1999-025AJM", "EPOCH": "2025-12-13T05:31:32.368800", "MEAN_MOTION": 14.27931083, "ECCENTRICITY": 0.02441504, "INCLINATION": 98.4659, "RA_OF_ASC_NODE": 325.5521, "ARG_OF_PERICENTER": 107.1024, "MEAN_ANOMALY": 19.642, "EPHEMERIS_TYPE": 0, "CLASSIFICATION_TYPE": "U", "NORAD_CAT_ID": 30523, "ELEMENT_SET_NO": 999, "REV_AT_EPOCH": 98107, "BSTAR": 0.00027335557, "MEAN_MOTION_DOT": 8.85e-06, "MEAN_MOTION_DDOT": 0}, "tle": {"line1": "1 30523U 99025AJM 25347.23023575  .00000885  00000+0  27336-3 0  9990", "line2": "2 30523  98.4659 325.5521 0244150 107.1024  19.6420 14.27931083981075"}}, "geometry": {"type": "Point", "coordinates": [128.9718916563174, -63.63343877893723]}}, {"type": "Feature", "properties": {"norad_id": 30524, "name": "FENGYUN 1C DEB", "group": "fengyun-1c-debris", "lat": 22.19098332128102, "lon": 156.4433384409154, "alt_km": 1028.3027066547384, "timestamp": "2025-12-14T03:55:53.064347+00:00", "meta": {"OBJECT_NAME": "FENGYUN 1C DEB", "OBJECT_ID": "1999-025AJN", "EPOCH": "2025-12-13T05:23:55.279104", "MEAN_MOTION": 13.92212954, "ECCENTRICITY": 0.020792, "INCLINATION": 99.3088, "RA_OF_ASC_NODE": 159.3362, "ARG_OF_PERICENTER": 248.9924, "MEAN_ANOMALY": 108.8882, "EPHEMERIS_TYPE": 0, "CLASSIFICATION_TYPE": "U", "NORAD_CAT_ID": 30524, "ELEMENT_SET_NO": 999, "REV_AT_EPOCH": 93892, "BSTAR": 0.0087671256, "MEAN_MOTION_DOT": 0.00013384, "MEAN_MOTION_DDOT": 0}, "tle": {"line1": "1 30524U 99025AJN 25347.22494536  .00013384  00000+0  87671-2 0  9994", "line2": "2 30524  99.3088 159.3362 0207920 248.9924 108.8882 13.92212954938924"}}, "geometry": {"type": "Point", "coordinates": [156.4433384409154, 22.19098332128102]}}, {"type": "Feature", "properties": {"norad_id": 30525, "name": "FENGYUN 1C DEB", "group": "fengyun-1c-debris", "lat": 81.38876226996818, "lon": 144.78964182658447, "alt_km": 1207.2439215719369, "timestamp": "2025-12-14T03:55:53.064357+00:00", "meta": {"OBJECT_NAME": "FENGYUN 1C DEB", "OBJECT_ID": "1999-025AJP", "EPOCH": "2025-12-11T15:23:44.239200", "MEAN_MOTION": 13.58601953, "ECCENTRICITY": 0.02937099, "INCLINATION": 98.6024, "RA_OF_ASC_NODE": 230.8726, "ARG_OF_PERICENTER": 312.3562, "MEAN_ANOMALY": 45.3044, "EPHEMERIS_TYPE": 0, "CLASSIFICATION_TYPE": "U", "NORAD_CAT_ID": 30525, "ELEMENT_SET_NO": 999, "REV_AT_EPOCH": 93102, "BSTAR": 0.0022686039, "MEAN_MOTION_DOT": 2.156e-05, "MEAN_MOTION_DDOT": 0}, "tle": {"line1": "1 30525U 99025AJP 25345.64148425  .00002156  00000+0  22686-2 0  9992", "line2": "2 30525  98.6024 230.8726 0293709 312.3562  45.3044 13.58601953931022"}}, "geometry": {"type": "Point", "coordinates": [144.78964182658447, 81.38876226996818]}}, {"type": "Feature", "properties": {"norad_id": 30526, "name": "FENGYUN 1C DEB", "group": "fengyun-1c-debris", "lat": 33.27633175752451, "lon": 64.02899397294229, "alt_km": 1221.3188183589236, "timestamp": "2025-12-14T03:55:53.064367+00:00", "meta": {"OBJECT_NAME": "FENGYUN 1C DEB", "OBJECT_ID": "1999-025AJQ", "EPOCH": "2025-12-12T16:11:02.021280", "MEAN_MOTION": 13.49906993, "ECCENTRICITY": 0.030618, "INCLINATION": 99.5471, "RA_OF_ASC_NODE": 68.9406, "ARG_OF_PERICENTER": 264.8931, "MEAN_ANOMALY": 91.7196, "EPHEMERIS_TYPE": 0, "CLASSIFICATION_TYPE": "U", "NORAD_CAT_ID": 30526, "ELEMENT_SET_NO": 999, "REV_AT_EPOCH": 92657, "BSTAR": 0.0018980815, "MEAN_MOTION_DOT": 1.568e-05, "MEAN_MOTION_DDOT": 0}, "tle": {"line1": "1 30526U 99025AJQ 25346.67432895  .00001568  00000+0  18981-2 0  9993", "line2": "2 30526  99.5471  68.9406 0306180 264.8931  91.7196 13.49906993926572"}}, "geometry": {"type": "Point", "coordinates": [64.02899397294229, 33.27633175752451]}}, {"type": "Feature", "properties": {"norad_id": 30527, "name": "FENGYUN 1C DEB", "group": "fengyun-1c-debris", "lat": -22.21389620761031, "lon": -152.64952827079455, "alt_km": 855.5385601727903, "timestamp": "2025-12-14T03:55:53.064378+00:00", "meta": {"OBJECT_NAME": "FENGYUN 1C DEB", "OBJECT_ID": "1999-025AJR", "EPOCH": "2025-12-12T21:10:07.765248", "MEAN_MOTION": 13.31032992, "ECCENTRICITY": 0.04132838, "INCLINATION": 100.0641, "RA_OF_ASC_NODE": 30.2532, "ARG_OF_PERICENTER": 226.1438, "MEAN_ANOMALY": 319.0847, "EPHEMERIS_TYPE": 0, "CLASSIFICATION_TYPE": "U", "NORAD_CAT_ID": 30527, "ELEMENT_SET_NO": 999, "REV_AT_EPOCH": 91358, "BSTAR": 0.0022256418, "MEAN_MOTION_DOT": 1.652e-05, "MEAN_MOTION_DDOT": 0}, "tle": {"line1": "1 30527U 99025AJR 25346.88203432  .00001652  00000+0  22256-2 0  9994", "line2": "2 30527 100.0641  30.2532 0413283 226.1438 319.0847 13.31032992913584"}}, "geometry": {"type": "Point", "coordinates": [-152.64952827079455, -22.21389620761031]}}, {"type": "Feature", "properties": {"norad_id": 30528, "name": "FENGYUN 1C DEB", "group": "fengyun-1c-debris", "lat": -78.14714912965336, "lon": -6.00111218233244, "alt_km": 774.3425477652409, "timestamp": "2025-12-14T03:55:53.064388+00:00", "meta": {"OBJECT_NAME": "FENGYUN 1C DEB", "OBJECT_ID": "1999-025AJS", "EPOCH": "2025-12-12T02:11:38.282784", "MEAN_MOTION": 14.13492414, "ECCENTRICITY": 0.01433547, "INCLINATION": 98.2379, "RA_OF_ASC_NODE": 215.7404, "ARG_OF_PERICENTER": 227.8175, "MEAN_ANOMALY": 293.0253, "EPHEMERIS_TYPE": 0, "CLASSIFICATION_TYPE": "U", "NORAD_CAT_ID": 30528, "ELEMENT_SET_NO": 999, "REV_AT_EPOCH": 97128, "BSTAR": 0.00051794022, "MEAN_MOTION_DOT": 1.035e-05, "MEAN_MOTION_DDOT": 0}, "tle": {"line1": "1 30528U 99025AJS 25346.09141531  .00001035  00000+0  51794-3 0  9994", "line2": "2 30528  98.2379 215.7404 0143354 227.8175 293.0253 14.13492414971287"}}, "geometry": {"type": "Point", "coordinates": [-6.00111218233244, -78.14714912965336]}}]}